{"epoch":1784762836,"count":18316,"objects":[{"id":"25118","name":"ORBCOMM FM 6","type":"PAYLOAD","l1":"1 25118U 97084G   26203.49174148  .00000666  00000-0  21804-3 0  9992","l2":"2 25118  45.0125 242.7451 0001905 255.5818 244.4735 14.47637034499505"},{"id":"25159","name":"ORBCOMM FM 4","type":"PAYLOAD","l1":"1 25159U 98007C   26203.02175847  .00000574  00000-0  24178-3 0  9994","l2":"2 25159 107.9632 241.1173 0042041 265.3218  94.3121 14.35792566481594"},{"id":"25415","name":"ORBCOMM FM 19","type":"PAYLOAD","l1":"1 25415U 98046C   26202.63495882  .00000629  00000-0  24520-3 0  9994","l2":"2 25415  44.9940  79.8100 0003282 105.1931 275.6377 14.39549967461745"},{"id":"25416","name":"ORBCOMM FM 20","type":"PAYLOAD","l1":"1 25416U 98046D   26202.40030915  .00000449  00000-0  19344-3 0  9990","l2":"2 25416  44.9942  89.2269 0000930  43.8049 316.2873 14.38106485461717"},{"id":"25481","name":"ORBCOMM FM 27","type":"PAYLOAD","l1":"1 25481U 98053G   26202.61840125  .00000568  00000-0  22717-3 0  9995","l2":"2 25481  45.0037 171.8079 0002110 314.1707  45.8968 14.39192713455195"},{"id":"25982","name":"ORBCOMM FM 32","type":"PAYLOAD","l1":"1 25982U 99065C   26203.46480662  .00000421  00000-0  18756-3 0  9991","l2":"2 25982  45.0165   6.2507 0006322 225.7604 134.2725 14.37174669392161"},{"id":"40086","name":"ORBCOMM FM 109","type":"PAYLOAD","l1":"1 40086U 14040A   26203.50594400  .00000088  00000-0  54798-4 0  9990","l2":"2 40086  47.0030 284.4996 0001099 346.5261  13.5595 14.58874903639502"},{"id":"41182","name":"ORBCOMM FM 110","type":"PAYLOAD","l1":"1 41182U 15081D   26203.37353052  .00000615  00000-0  16607-3 0  9997","l2":"2 41182  47.0003 195.0650 0003816 250.4417 109.6057 14.58926922562761"},{"id":"41183","name":"ORBCOMM FM 118","type":"PAYLOAD","l1":"1 41183U 15081E   26202.72318850  .00000537  00000-0  14973-3 0  9990","l2":"2 41183  47.0024 198.4808 0003181 214.1701 145.8981 14.58910590562778"},{"id":"41184","name":"ORBCOMM FM 112","type":"PAYLOAD","l1":"1 41184U 15081F   26202.79552286  .00000447  00000-0  13062-3 0  9999","l2":"2 41184  46.9989 106.5867 0003283 357.6021   2.4849 14.58945312564002"},{"id":"41185","name":"ORBCOMM FM 113","type":"PAYLOAD","l1":"1 41185U 15081G   26203.45823577  .00000255  00000-0  90045-4 0  9992","l2":"2 41185  47.0007 103.8481 0001816 351.0559   9.0294 14.58887318564088"},{"id":"41187","name":"ORBCOMM FM 108","type":"PAYLOAD","l1":"1 41187U 15081J   26203.48857404  .00000412  00000-0  12318-3 0  9994","l2":"2 41187  47.0060  15.2864 0002174 351.0042   9.0805 14.58917449565230"},{"id":"41188","name":"ORBCOMM FM 117","type":"PAYLOAD","l1":"1 41188U 15081K   26203.52285717  .00000396  00000-0  11991-3 0  9999","l2":"2 41188  47.0023  13.7495 0002548 359.8916   0.1969 14.58904397565280"},{"id":"41189","name":"ORBCOMM FM 116","type":"PAYLOAD","l1":"1 41189U 15081L   26203.43446297  .00000420  00000-0  12494-3 0  9999","l2":"2 41189  47.0023 103.9572 0001737 248.7188 111.3513 14.58913578564083"}]}