OBJECT_NAME,OBJECT_ID,EPOCH,MEAN_MOTION,ECCENTRICITY,INCLINATION,RA_OF_ASC_NODE,ARG_OF_PERICENTER,MEAN_ANOMALY,EPHEMERIS_TYPE,CLASSIFICATION_TYPE,NORAD_CAT_ID,ELEMENT_SET_NO,REV_AT_EPOCH,BSTAR,MEAN_MOTION_DOT,MEAN_MOTION_DDOT
ORBCOMM FM06,1997-084G,2026-07-22T11:48:06.463872,14.47637034,.0001905,45.0125,242.7451,255.5818,244.4735,0,U,25118,999,49950,.21804482E-3,.666E-5,0
ORBCOMM FM04,1998-007C,2026-07-22T00:31:19.931808,14.35792566,.0042041,107.9632,241.1173,265.3218,94.3121,0,U,25159,999,48159,.24177673E-3,.574E-5,0
ORBCOMM FM19,1998-046C,2026-07-21T15:14:20.442048,14.39549967,.00032819,44.9940,79.8100,105.1931,275.6377,0,U,25415,999,46174,.24520013E-3,.629E-5,0
ORBCOMM FM20,1998-046D,2026-07-21T09:36:26.710560,14.38106485,.00009302,44.9942,89.2269,43.8049,316.2873,0,U,25416,999,46171,.19343766E-3,.449E-5,0
ORBCOMM FM27,1998-053G,2026-07-21T14:50:29.868000,14.39192713,.00021097,45.0037,171.8079,314.1707,45.8968,0,U,25481,999,45519,.22716951E-3,.568E-5,0
ORBCOMM FM32,1999-065C,2026-07-22T11:09:19.291968,14.37174669,.00063223,45.0165,6.2507,225.7604,134.2725,0,U,25982,999,39216,.18755703E-3,.421E-5,0
ORBCOMM FM109,2014-040A,2026-07-22T12:08:33.561600,14.58874903,.00010987,47.0030,284.4996,346.5261,13.5595,0,U,40086,999,63950,.5479793E-4,.88E-6,0
ORBCOMM FM110,2015-081D,2026-07-22T08:57:53.036928,14.58926922,.00038164,47.0003,195.0650,250.4417,109.6057,0,U,41182,999,56276,.16607226E-3,.615E-5,0
ORBCOMM FM118,2015-081E,2026-07-21T17:21:23.486400,14.58910590,.00031814,47.0024,198.4808,214.1701,145.8981,0,U,41183,999,56277,.14972612E-3,.537E-5,0
ORBCOMM FM112,2015-081F,2026-07-21T19:05:33.175104,14.58945312,.00032826,46.9989,106.5867,357.6021,2.4849,0,U,41184,999,56400,.13061578E-3,.447E-5,0
ORBCOMM FM113,2015-081G,2026-07-22T10:59:51.570528,14.58887318,.00018164,47.0007,103.8481,351.0559,9.0294,0,U,41185,999,56408,.90045145E-4,.255E-5,0
ORBCOMM FM108,2015-081J,2026-07-22T11:43:32.797056,14.58917449,.00021742,47.0060,15.2864,351.0042,9.0805,0,U,41187,999,56523,.12318365E-3,.412E-5,0
ORBCOMM FM117,2015-081K,2026-07-22T12:32:54.859488,14.58904397,.00025484,47.0023,13.7495,359.8916,0.1969,0,U,41188,999,56528,.11991292E-3,.396E-5,0
ORBCOMM FM116,2015-081L,2026-07-22T10:25:37.600608,14.58913578,.00017368,47.0023,103.9572,248.7188,111.3513,0,U,41189,999,56408,.12494142E-3,.42E-5,0
